{
    "links": {
        "self": "http://www.neowsapp.com/rest/v1/neo/3626734?api_key=iIulBulltgU6a56xZRHN4H3l9WmuAYTsLGpBGhQ2"
    },
    "id": "3626734",
    "neo_reference_id": "3626734",
    "name": "(2013 CM118)",
    "designation": "2013 CM118",
    "nasa_jpl_url": "http://ssd.jpl.nasa.gov/sbdb.cgi?sstr=3626734",
    "absolute_magnitude_h": 25.3,
    "estimated_diameter": {
        "kilometers": {
            "estimated_diameter_min": 0.0231502122,
            "estimated_diameter_max": 0.0517654482
        },
        "meters": {
            "estimated_diameter_min": 23.150212221,
            "estimated_diameter_max": 51.7654482198
        },
        "miles": {
            "estimated_diameter_min": 0.0143848705,
            "estimated_diameter_max": 0.0321655483
        },
        "feet": {
            "estimated_diameter_min": 75.9521422633,
            "estimated_diameter_max": 169.8341531374
        }
    },
    "is_potentially_hazardous_asteroid": false,
    "close_approach_data": [
        {
            "close_approach_date": "2008-02-24",
            "close_approach_date_full": "2008-Feb-24 18:48",
            "epoch_date_close_approach": 1203878880000,
            "relative_velocity": {
                "kilometers_per_second": "17.5708637103",
                "kilometers_per_hour": "63255.1093571858",
                "miles_per_hour": "39304.2650336358"
            },
            "miss_distance": {
                "astronomical": "0.4267319469",
                "lunar": "165.9987273441",
                "kilometers": "63838190.317193103",
                "miles": "39667212.0700387014"
            },
            "orbiting_body": "Earth"
        },
        {
            "close_approach_date": "2013-02-06",
            "close_approach_date_full": "2013-Feb-06 22:40",
            "epoch_date_close_approach": 1360190400000,
            "relative_velocity": {
                "kilometers_per_second": "7.74182918",
                "kilometers_per_hour": "27870.5850478233",
                "miles_per_hour": "17317.6976926322"
            },
            "miss_distance": {
                "astronomical": "0.0834970639",
                "lunar": "32.4803578571",
                "kilometers": "12490982.910693893",
                "miles": "7761536.8734580034"
            },
            "orbiting_body": "Earth"
        },
        {
            "close_approach_date": "2017-11-17",
            "close_approach_date_full": "2017-Nov-17 23:19",
            "epoch_date_close_approach": 1510960740000,
            "relative_velocity": {
                "kilometers_per_second": "14.0848550474",
                "kilometers_per_hour": "50705.4781706663",
                "miles_per_hour": "31506.4122555454"
            },
            "miss_distance": {
                "astronomical": "0.4224603386",
                "lunar": "164.3370717154",
                "kilometers": "63199166.814038782",
                "miles": "39270141.2775959116"
            },
            "orbiting_body": "Earth"
        }
    ],
    "orbital_data": {
        "orbit_id": "7",
        "orbit_determination_date": "2017-04-06 08:46:49",
        "first_observation_date": "2013-02-13",
        "last_observation_date": "2013-03-03",
        "data_arc_in_days": 18,
        "observations_used": 19,
        "orbit_uncertainty": "7",
        "minimum_orbit_intersection": ".0832425",
        "jupiter_tisserand_invariant": "4.707",
        "epoch_osculation": "2459000.5",
        "eccentricity": ".2760139523800383",
        "semi_major_axis": "1.39349834666746",
        "inclination": "12.11232763911132",
        "ascending_node_longitude": "330.3487745240436",
        "orbital_period": "600.8389984780305",
        "perihelion_distance": "1.008873360368726",
        "perihelion_argument": "130.2477201157692",
        "aphelion_distance": "1.778123332966195",
        "perihelion_time": "2459299.292944279898",
        "mean_anomaly": "180.9745702039408",
        "mean_motion": ".5991621730811524",
        "equinox": "J2000",
        "orbit_class": {
            "orbit_class_type": "APO",
            "orbit_class_description": "Near-Earth asteroid orbits which cross the Earth’s orbit similar to that of 1862 Apollo",
            "orbit_class_range": "a (semi-major axis) > 1.0 AU; q (perihelion) < 1.017 AU"
        }
    },
    "is_sentry_object": false
}